{
    "links": {
        "self": "http://www.neowsapp.com/rest/v1/neo/3736244?api_key=iIulBulltgU6a56xZRHN4H3l9WmuAYTsLGpBGhQ2"
    },
    "id": "3736244",
    "neo_reference_id": "3736244",
    "name": "(2015 XW129)",
    "designation": "2015 XW129",
    "nasa_jpl_url": "http://ssd.jpl.nasa.gov/sbdb.cgi?sstr=3736244",
    "absolute_magnitude_h": 22.0,
    "estimated_diameter": {
        "kilometers": {
            "estimated_diameter_min": 0.1058168859,
            "estimated_diameter_max": 0.2366137501
        },
        "meters": {
            "estimated_diameter_min": 105.8168859331,
            "estimated_diameter_max": 236.6137501138
        },
        "miles": {
            "estimated_diameter_min": 0.0657515442,
            "estimated_diameter_max": 0.1470249225
        },
        "feet": {
            "estimated_diameter_min": 347.1682720448,
            "estimated_diameter_max": 776.2918559233
        }
    },
    "is_potentially_hazardous_asteroid": false,
    "close_approach_data": [
        {
            "close_approach_date": "1973-12-01",
            "close_approach_date_full": "1973-Dec-01 08:38",
            "epoch_date_close_approach": 123583080000,
            "relative_velocity": {
                "kilometers_per_second": "15.9568085639",
                "kilometers_per_hour": "57444.5108301048",
                "miles_per_hour": "35693.7850766282"
            },
            "miss_distance": {
                "astronomical": "0.3881472415",
                "lunar": "150.9892769435",
                "kilometers": "58066000.574775605",
                "miles": "36080539.680309149"
            },
            "orbiting_body": "Earth"
        },
        {
            "close_approach_date": "2015-11-27",
            "close_approach_date_full": "2015-Nov-27 00:48",
            "epoch_date_close_approach": 1448585280000,
            "relative_velocity": {
                "kilometers_per_second": "13.7515633824",
                "kilometers_per_hour": "49505.6281767174",
                "miles_per_hour": "30760.8721301387"
            },
            "miss_distance": {
                "astronomical": "0.363594504",
                "lunar": "141.438262056",
                "kilometers": "54392963.34210648",
                "miles": "33798220.176490224"
            },
            "orbiting_body": "Earth"
        },
        {
            "close_approach_date": "2020-11-30",
            "close_approach_date_full": "2020-Nov-30 14:34",
            "epoch_date_close_approach": 1606746840000,
            "relative_velocity": {
                "kilometers_per_second": "15.1866154127",
                "kilometers_per_hour": "54671.8154858924",
                "miles_per_hour": "33970.9400167758"
            },
            "miss_distance": {
                "astronomical": "0.3496117721",
                "lunar": "135.9989793469",
                "kilometers": "52301176.433085427",
                "miles": "32498444.0626438126"
            },
            "orbiting_body": "Earth"
        }
    ],
    "orbital_data": {
        "orbit_id": "8",
        "orbit_determination_date": "2017-04-06 08:30:05",
        "first_observation_date": "2015-12-05",
        "last_observation_date": "2015-12-31",
        "data_arc_in_days": 26,
        "observations_used": 32,
        "orbit_uncertainty": "6",
        "minimum_orbit_intersection": ".327132",
        "jupiter_tisserand_invariant": "3.838",
        "epoch_osculation": "2459000.5",
        "eccentricity": ".3457411814486884",
        "semi_major_axis": "1.829350801597502",
        "inclination": "26.79976850501826",
        "ascending_node_longitude": "232.8545311426506",
        "orbital_period": "903.7408627720247",
        "perihelion_distance": "1.196868894169076",
        "perihelion_argument": "238.0469574059484",
        "aphelion_distance": "2.461832709025927",
        "perihelion_time": "2459225.137916067917",
        "mean_anomaly": "270.5167718803811",
        "mean_motion": ".3983442763623411",
        "equinox": "J2000",
        "orbit_class": {
            "orbit_class_type": "AMO",
            "orbit_class_description": "Near-Earth asteroid orbits similar to that of 1221 Amor",
            "orbit_class_range": "1.017 AU < q (perihelion) < 1.3 AU"
        }
    },
    "is_sentry_object": false
}